#dP2021  1 30  0  0  0.00000000     289 ORBIT ITRF  BHN ESOC                    
## 2142 518400.00000000   300.00000000 59244 0.0000000000000                    
+  115   G13G28G21G22G07G05G20G31G17G15G16G29G12G19G02G25G01                    
+        G30G24G27G06G09G03G32G26G08G10G04G18G23G14R11R20R19                    
+        R13R01R22R16R08R03R07R02R17R14R18R21R05R15R12R04R24                    
+        E11E12E19E18E14E26E24E30E08E09E01E02E07E03E04E05E21                    
+        E25E27E31E36E13E15E33C11C12C14C19C20C27C28C22C21C29                    
+        C30C23C24C26C25C32C33C35C34C36C37C46C45C44C43C41C42                    
+        C06C07C08C09C10C13C16C38C39C40J01J02J03  0  0  0  0                    
++         4  4  4  4  4  5  5  5  5  5  5  5  5  5  5  4  4                    
++         4  4  4  4  5  4  4  4  4  4  5  4  5  4  5  6  6                    
++         6  6  6  6  6  6  7  5  5  5  5  5  5  5  5  5  5                    
++         4  5  5  4  5  4  5  5  5  4  4  5  4  5  5  5  4                    
++         5  4  4  5  4  4  4  6  6  5  4  5  5  5  5  5  5                    
++         5  6  5  5  5  5  6  4  6  5  6  6  6  6  7  7  6                    
++         6  7  7  6  7  6  6  8  8  7  6  6  6  0  0  0  0                    
%c M  cc GPS ccc cccc cccc cccc cccc ccccc ccccc ccccc ccccc                    
%c cc cc ccc ccc cccc cccc cccc cccc ccccc ccccc ccccc ccccc                    
%f  0.0000000  0.000000000  0.00000000000  0.000000000000000                    
%f  0.0000000  0.000000000  0.00000000000  0.000000000000000                    
%i    0    0    0    0      0      0      0      0         0                    
%i    0    0    0    0      0      0      0      0         0                    
/* CCCCCCCCCCCCCCCCCCCCCCCCCCCCCCCCCCCCCCCCCCCCCCCCCCCCCCCCCCCCCCCCCCCCCCCCCCCCC
/* CCCCCCCCCCCCCCCCCCCCCCCCCCCCCCCCCCCCCCCCCCCCCCCCCCCCCCCCCCCCCCCCCCCCCCCCCCCCC
/* CCCCCCCCCCCCCCCCCCCCCCCCCCCCCCCCCCCCCCCCCCCCCCCCCCCCCCCCCCCCCCCCCCCCCCCCCCCCC
/* PCV:IGS        OL/AL:EOT11A   NONE     YN ORB:CoN CLK:CoN                    
*  2021  1 30 21 25  0.00000000                                                 
PG13 -13355.743533   9409.859436  20779.446565     91.722794                    
PG28 -22100.526067 -13378.086861   6278.928685    622.442147                    
PG21  17023.211830 -19991.838002  -1167.207892     91.402137                    
PG22  12623.387505 -12338.653189 -19600.571879   -688.625650                    
PG07  -2372.910081 -17414.730805  20102.338666     41.181302                    
PG05 -21624.921737   5087.095724  14544.868503    -32.383341                    
PG20  14078.484983  14739.365368  17110.395625    524.922916                    
PG31  19861.915837   -940.609802 -17907.185799    -97.118535                    
PG17 -13356.183651 -16799.438824 -15217.017731    386.932548                    
PG15  -5090.537265  20321.550631  15759.054257   -172.735569                    
PG16  22751.136346  -1094.383593  13806.719461   -272.847193                    
PG29   4352.160536  26179.127711   -107.545442   -285.792443                    
PG12  -8426.356749  12739.657282 -21959.140793      5.671337                    
PG19 -14938.111987  -9015.478444 -20333.319359    -44.947453                    
PG02 -20831.218358  12448.550104 -10151.031637   -571.706963                    
PG25   7375.356212  16514.811152 -19796.257433     70.573007                    
PG01  12013.405207 -21047.952562 -10699.458196    770.739188                    
PG30 -12961.931090  -9367.468449  21270.895299   -377.218896                    
PG24 -14205.091386  21554.965902  -5522.548464      2.984630                    
PG27  13635.429728  -6124.713116  21773.638885    -66.646671                    
PG06 -17829.415845  -1081.961758 -19608.892402     -3.968473                    
PG09  -6854.964468 -25645.679047    208.735058   -318.157002                    
PG03   3371.949405 -14723.704504 -21928.659938    -70.076009                    
PG32  15206.574252  15068.857561 -15732.943588     16.822790                    
PG26  26177.152339   3905.325802   3509.268920     37.751762                    
PG08   6987.785071 -19143.296886  16878.772235     -8.511692                    
PG10  22777.547683  11887.580920   7365.534247    -50.853735                    
PG04   2746.519980 -24049.515490 -10867.686141   -176.718842                    
PG18   4265.157462  15712.759879  20969.839620    344.700754                    
PG23  14536.073510  15395.677990  16033.828684    117.686781                    
PG14 -21108.151731 -13637.093198   8602.383815     92.460385                    
PR11  10649.842123   8051.575476 -21725.617753      3.983945                    
PR20 -12975.965046  15562.715448 -15509.955112   -432.307664                    
PR19  -9407.367908  -4440.086065 -23283.142997   -130.068411                    
PR13  22571.530616  -8968.475686   7784.780916    -50.039738                    
PR01  19211.828166  13011.911462 -10584.359782     74.242328                    
PR22   2175.647140  18250.593074  17729.527278    -95.311408                    
PR16 -23886.862951   1450.921172   8609.642329    -10.779958                    
PR08  15414.402112  19956.379297   3975.734416    -57.156283                    
PR03  -3534.127503 -17083.873922 -18546.991869     30.049581                    
PR07   4052.882320  17445.409878  18218.300349    -42.313437                    
PR02  10512.002050  -4368.351279 -22794.589465    465.007256                    
PR17   7256.825182 -24421.848470  -1581.970097    395.833290                    
PR14   7913.925636 -12099.980640  21019.743349     60.429019                    
PR18  -1714.295638 -18937.843481 -16950.800482     64.963432                    
PR21  -6776.468766  24421.208402   2788.709477   -184.178465                    
PR05 -18598.542766 -11683.193810  12958.823397     65.660565                    
PR15 -10915.502415  -8189.735933  21564.343148    105.640247                    
PR12  23691.949924   -553.487927  -9451.278751    200.989636                    
PR04 -15449.691992 -19910.303266  -3894.792190     72.131985                    
PR24  13012.131384 -16157.758535  14872.920805     29.705748                    
PE11 -21029.691277  16265.975730 -13029.069184   6391.714380                    
PE12 -16651.034117  -3602.689205 -24198.906893   5380.415790                    
PE19 -11228.363967 -27257.159290  -2646.271594    191.602812                    
PE18   2167.064588 -25669.449397   7590.489615  -1435.203291                    
PE14 -13805.656389  18138.632695 -20415.593760  -1313.032073                    
PE26  12641.740754 -26095.467908  -5942.674712   2204.502716                    
PE24 -26630.642854   5781.487236 -11532.237472   -717.664740                    
PE30  27818.418368   7059.032491  -7301.044568   3220.486567                    
PE08  19991.894053  13832.975444 -16882.961658   6054.212771                    
PE09 -15379.527424   7143.160194  24261.024000   5781.604640                    
PE01 -12947.887711 -15516.985973  21621.575634  -1035.866735                    
PE02  13099.448088  15490.246877 -21566.222737    194.874952                    
PE07  15612.949109  -6985.632830 -24157.157774   -494.538812                    
PE03  12681.855308  26735.708496    442.511086   -393.202424                    
PE04 -19981.830761 -14190.304640  16599.252719   -699.722068                    
PE05  -2174.001397  23783.459727  17484.726061   -308.570163                    
PE21   8908.661870 -15335.202285  23697.705947   -645.763336                    
PE25  -9084.758046  15292.835991 -23653.654741   -525.423155                    
PE27  26305.067119  -6258.802282  12064.162205     40.106136                    
PE31 -28123.242777  -6443.732165   6595.218776   -477.841579                    
PE36 -12989.437485  26066.498244   5320.018204    447.176235                    
PE13  20980.324038 -16004.378071  13418.417443    411.210912                    
PE15  16618.739481   3485.603686  24259.228218    831.704621                    
PE33  -2481.600784 -20892.354427 -20803.962387   -465.293202                    
PC11 -13656.868680  17779.606571 -16522.935204   -922.566043                    
PC12 -15179.270781  -2021.978514 -23286.784034    764.615202                    
PC14 -15770.567286   7176.647703  21910.002889     22.650018                    
PC19   6949.009870 -14500.185082 -22785.301994    710.056991                    
PC20  21044.047771     44.139428 -18301.494279   -911.593792                    
PC27  12857.764657  12914.676973  21126.114984    475.154868                    
PC28   2105.956162  26481.930740   8546.287541   -115.444407                    
PC22 -11558.688266 -21092.593552 -14170.066651   -862.307217                    
PC21 -23202.781505 -15293.918617   2663.739380   -815.840607                    
PC29   8925.349742 -24854.967969   9008.345603    345.708172                    
PC30  15820.132421  -8242.955677  21454.576075    438.262338                    
PC23   2066.458416  16474.434485 -22429.114655   -877.901188                    
PC24 -26497.312088   7731.177880   3974.817482   -750.895893                    
PC26 -20666.818638  -5008.390378  18041.375716    955.397965                    
PC25 -16505.034663  17863.827980 -13668.152616   -916.149541                    
PC32  23289.631529  15143.848880  -2607.336911   -888.304345                    
PC33  -7005.636681  14499.811338  22794.332181   -941.365822                    
PC35  -2853.013434 -26481.389611  -8263.773423   -440.956143                    
PC34 -15802.421853   8992.101288 -21180.446234   -751.183984                    
PC36  17210.186230 -17408.601594  13423.634316   -765.467231                    
PC37  19997.077908   6045.463987 -18501.046982   -861.973432                    
PC46  26446.846952  -8388.552833  -3198.890005    427.805042                    
PC45  -2088.427005 -16351.881489  22518.189720    349.177801                    
PC44 -13340.228294 -12649.460592 -20985.911537     13.644367                    
PC43  -9348.481785  24580.568842  -9374.969822   -575.905613                    
PC41  11330.091578  21081.188162  14405.864830   -931.690342                    
PC42 -21431.813248   -572.118606  17910.258845   -833.822925                    
PC06 -10612.683544  38257.883740  15307.696704     48.953835                    
PC07 -12713.290929  23132.286650 -32629.261245   -278.477103                    
PC08 -24992.947640  28428.072165  18267.495737   -923.346566                    
PC09  -1938.922357  42343.178476    875.786070    767.149524                    
PC10   1723.092656  28066.727472 -31105.333757    -94.885870                    
PC13 -10478.970211  28988.960571  28749.917404    120.557015                    
PC16  -9229.383347  38654.410294  14485.530072   -677.844116                    
PC38 -22622.795454  30076.305442  18914.432383    127.033611                    
PC39  -5811.091596  39584.736871  13514.725460     27.923301                    
PC40  -3076.101542  23358.601377 -34936.058056    126.557290                    
PJ01 -25781.499298  21816.519906  30281.046753   -338.462673                    
PJ02 -34319.415997  15688.952521 -14308.198469      1.276545                    
PJ03 -20697.647404  31351.252431 -14404.420147     -0.355786                    
EOF                                                                             
